COSMOS 2532             
1 43753U 18097C   24118.52261523  .00000055  00000+0  32368-3 0  9993
2 43753  82.5160 346.7565 0017935 321.9059  38.0752 12.42886313245392
MINXSS-2                
1 43758U 18099A   24118.15461266  .00019951  00000+0  13043-2 0  9998
2 43758  97.5572 181.3338 0018640 131.2461 229.0377 15.07684071295092
SIRION PATHFINDER-2     
1 43759U 18099B   24117.94472335  .00011084  00000+0  84598-3 0  9997
2 43759  97.5351 175.5454 0014824 103.0593 257.2288 15.02069974294812
AISTECHSAT 2            
1 43768U 18099L   24117.69354873  .00011196  00000+0  85580-3 0  9991
2 43768  97.5417 173.1688 0006829 109.6323 250.5639 15.02080880294395
FOX-1CLIFF (AO-95)      
1 43770U 18099N   24117.65564742  .00015189  00000+0  10784-2 0  9997
2 43770  97.5480 176.6259 0014635 174.4179 185.7213 15.04728953294819
2018-099Q               
1 43772U 18099Q   24117.67531071  .00021313  00000+0  13722-2 0  9991
2 43772  97.5269 179.9619 0006585  92.8015 267.3968 15.08359632294956
RANGE-A                 
1 43773U 18099R   24118.40953534  .00010259  00000+0  79033-3 0  9991
2 43773  97.5094 173.2916 0016901 143.2027 217.0362 15.01710093294817
HIBER-2                 
1 43774U 18099S   24118.14323163  .00025251  00000+0  15608-2 0  9997
2 43774  97.5460 181.3196 0011172 124.6901 235.5382 15.09783976295067
MOVE-II                 
1 43780U 18099Y   24117.62851072  .00031755  00000+0  17734-2 0  9999
2 43780  97.5249 181.1735 0008517 150.4615 209.7099 15.13425071295123
VESTA-1                 
1 43781U 18099Z   24118.41784984  .00028575  00000+0  18636-2 0  9993
2 43781  97.5224 177.2373 0008217 142.4249 217.7554 15.07809609295033
SNUSAT-2                
1 43782U 18099AA  24118.44130144  .00014450  00000+0  10451-2 0  9994
2 43782  97.5174 176.8167 0016239 115.4111 244.8798 15.04023362294946
SNUGLITE                
1 43784U 18099AC  24118.16438227  .00015692  00000+0  11053-2 0  9996
2 43784  97.4995 175.9237 0006180 121.5163 238.6668 15.05089652294969
ITASAT                  
1 43786U 18099AE  24118.42559798  .00012671  00000+0  93100-3 0  9992
2 43786  97.5151 177.1401 0018796 159.7822 200.4153 15.03425445294940
KAZSCISAT-1             
1 43787U 18099AF  24118.40848187  .00030134  00000+0  17335-2 0  9993
2 43787  97.5100 179.3562 0008015 127.2197 232.9766 15.12375625295254
EAGLET-I                
1 43790U 18099AJ  24118.42757561  .00009604  00000+0  73068-3 0  9998
2 43790  97.5351 177.6056 0016118 139.2783 220.9650 15.02212923294654
ESEO                    
1 43792U 18099AL  24118.15662616  .00005062  00000+0  41825-3 0  9996
2 43792  97.5189 174.5183 0013850 142.2757 217.9440 14.99309386294554
CSIM-FD                 
1 43793U 18099AM  24118.14236934  .00031453  00000+0  17569-2 0  9996
2 43793  97.5314 183.3619 0014487 129.0831 231.1692 15.13361125295059
ORBWEAVER 1             
1 43795U 18099AP  24118.18559313  .00105253  00000+0  32954-2 0  9996
2 43795  97.5313 190.4329 0001214 107.4305 252.7070 15.32679086295774
THEA                    
1 43796U 18099AQ  24118.13735766  .00017229  00000+0  11608-2 0  9998
2 43796  97.5477 181.0958 0014920 131.0298 229.2222 15.06651604295092
ASTROCAST 0.1           
1 43798U 18099AS  24118.14220771  .00024691  00000+0  15125-2 0  9995
2 43798  97.5381 181.9743 0011577 107.4931 252.7565 15.10112927295170
JY1SAT (JO-97)          
1 43803U 18099AX  24118.10068515  .00017231  00000+0  11761-2 0  9998
2 43803  97.5243 177.9372 0011794 116.7976 243.4459 15.06204300295003
SUOMI-100               
1 43804U 18099AY  24118.12787396  .00016259  00000+0  11281-2 0  9992
2 43804  97.5303 177.7704 0017498 116.1115 244.1915 15.05535999294996
AL-FARABI 2             
1 43805U 18099AZ  24118.12717254  .00024765  00000+0  15481-2 0  9996
2 43805  97.5128 179.3581 0012335 109.9330 250.3229 15.09364451295138
CENTAURI-1              
1 43809U 18099BD  24117.67822030  .00010591  00000+0  78788-3 0  9990
2 43809  97.5337 176.5020 0020809 132.1253 228.1745 15.02968925294547
GLOBAL-2                
1 43812U 18099BG  24117.91263096  .00009167  00000+0  73746-3 0  9998
2 43812  97.4890 174.5582 0004356 272.9729  87.0996 15.00188514294406
BRIO                    
1 43813U 18099BH  24118.15684392  .00033148  00000+0  18685-2 0  9998
2 43813  97.5701 186.8152 0008259 111.8138 248.3972 15.13084589294956
SEAHAWK-1               
1 43820U 18099BQ  24117.12857675  .00013031  00000+0  94071-3 0  9991
2 43820  97.5065 175.0135 0013531 133.7467 226.4882 15.04152212294209
SAUDISAT 5A             
1 43831U 18102A   24118.47412954  .00010473  00000+0  55882-3 0  9998
2 43831  97.4103 185.3381 0012200   1.8024 358.3250 15.15267588296915
SAUDISAT 5B             
1 43833U 18102C   24118.53366233  .00009414  00000+0  49370-3 0  9993
2 43833  97.4151 187.1367 0013090   5.7601 354.3780 15.15900161297002
2018-102D               
1 43834U 18102D   24118.54536570  .00016259  00000+0  74734-3 0  9995
2 43834  97.4265 190.8307 0010834 358.9358   1.1852 15.20391017297196
2018-102E               
1 43835U 18102E   24118.49547315  .00038884  00000+0  12829-2 0  9993
2 43835  97.4305 196.2205 0008593 337.4363  22.6499 15.31285991297545
2018-102F               
1 43836U 18102F   24118.48386468  .00044910  00000+0  14477-2 0  9991
2 43836  97.4361 197.7486 0008530 337.5818  22.5050 15.31999926297566
2018-102G               
1 43837U 18102G   24118.52726494  .00041828  00000+0  12583-2 0  9995
2 43837  97.4385 199.2595 0008245 335.3920  24.6928 15.34224590297674
2018-102H               
1 43838U 18102H   24118.53728293  .00076015  00000+0  16821-2 0  9991
2 43838  97.3983 199.9905 0008706 316.1686  43.8871 15.43493727297847
2018-102J               
1 43839U 18102J   24118.53143338  .00041493  00000+0  13124-2 0  9998
2 43839  97.4551 202.2494 0009587 341.8580  18.2319 15.32618752297676
CHOMPTT                 
1 43855U 18104G   24118.54034389  .00552471  12312-3  14390-2 0  9996
2 43855  85.0027 306.2094 0004616 216.0075 144.0896 15.94968707299605
CP11 (ISX)              
1 43856U 18104H   24118.56155644  .00459011  77469-4  15502-2 0  9994
2 43856  84.9998 309.5773 0005276 236.5274 123.5501 15.89924600299201
ISAT                    
1 43879U 18111D   24117.71478340  .00019623  00000+0  12399-2 0  9998
2 43879  97.6231  23.7100 0014037 166.0975 194.0642 15.09005251291650
UWE-4                   
1 43880U 18111E   24118.46714597  .00018106  00000+0  11671-2 0  9997
2 43880  97.6153  24.5982 0017246 174.1805 185.9627 15.08246406289780
D-STAR ONE (SPARROW)    
1 43881U 18111F   24117.96798491  .00023094  00000+0  14397-2 0  9997
2 43881  97.6306  25.7671 0009597 205.0398 155.0366 15.09506863289752
LEMUR-2-TINYKEV         
1 43883U 18111H   24118.14211064  .00051198  00000+0  23795-2 0  9994
2 43883  97.6169  30.6059 0011021 131.4296 228.7887 15.19746363290132
LEMUR-2-REMY-COLTON     
1 43884U 18111J   24118.32174604  .00039048  00000+0  19637-2 0  9993
2 43884  97.6313  31.3680 0003725 118.2945 241.8664 15.17118183290138
MICRODRAGON             
1 43935U 19003D   24117.55648777  .00081635  00000+0  12137-2 0  9999
2 43935  97.0808 133.7658 0007335 219.7680 140.3038 15.54858794293898
JILIN-1 09              
1 43943U 19005B   24118.52535327  .00012650  00000+0  64130-3 0  9996
2 43943  97.4860 212.9294 0019080 119.2843 241.0300 15.16931347290814
JILIN-1 10              
1 43946U 19005E   24118.55701508  .00012906  00000+0  64840-3 0  9990
2 43946  97.4856 213.0049 0031173 115.4549 244.9915 15.16970289290744
EGYPTSAT-A (MISRSAT-A)  
1 44047U 19008A   24118.47276318  .00002379  00000+0  38338-3 0  9999
2 44047  98.0100 183.4449 0001432 107.5398 252.5965 14.72393323278362
EMISAT                  
1 44078U 19018A   24118.47494009  .00001018  00000+0  31123-3 0  9997
2 44078  98.3414 178.7489 0019390  60.5723 299.7400 14.43757982267403
AIS & APRS & ARIS & R/B 
1 44104U 19018AC  24118.16214519  .00201245  00000+0  10629-2 0  9990
2 44104  97.3623 225.6139 0018974 174.9120 185.2344 15.79812940284777
JILIN-1 GAOFEN 3A       
1 44312U 19032C   24118.50659032  .00013021  00000+0  78872-3 0  9996
2 44312  44.9835 262.4843 0011389 195.1703 164.8833 15.10571468268991
XIAOXIANG 4             
1 44313U 19032D   24118.50056571  .00026165  00000+0  13104-2 0  9995
2 44313  44.9913 249.5597 0011232 213.0030 147.0148 15.16942971269171
WT 1A                   
1 44315U 19032F   24118.55217035  .00021819  00000+0  11552-2 0  9992
2 44315  44.9789 244.2586 0014106 218.5374 141.4498 15.15045909269202
WT 1B                   
1 44316U 19032G   24118.55956018  .00009929  00000+0  67687-3 0  9993
2 44316  44.9806 293.4671 0014581 162.0236 198.1157 15.06418930268591
PROX-1                  
1 44339U 19036A   24118.54281400  .00015096  00000+0  26780-2 0  9997
2 44339  23.9982 190.9366 0009335 150.4602 209.6420 14.65592759257897
NPSAT1                  
1 44340U 19036B   24117.64084544  .00011733  00000+0  23042-2 0  9991
2 44340  23.9988 218.7401 0010464 100.8463 259.3208 14.60873084257482
FORMOSAT 7-3            
1 44343U 19036E   24118.17886833  .00013901  00000+0  81977-3 0  9995
2 44343  23.9979 142.7307 0001270  33.7121 326.3463 15.09620592265278
FORMOSAT 7-1            
1 44349U 19036L   24118.24510654  .00015501  00000+0  91595-3 0  9999
2 44349  23.9996 318.2743 0003025  31.7490 328.3196 15.09629455267010
FORMOSAT 7-4            
1 44350U 19036M   24118.39911637  .00015579  00000+0  92080-3 0  9998
2 44350  24.0005  19.3026 0002887   9.2467 350.8089 15.09623650266478
FORMOSAT 7-2            
1 44351U 19036N   24118.55379010  .00012620  00000+0  74264-3 0  9998
2 44351  23.9988  72.5645 0002178 346.6428  13.4017 15.09606877265983
FORMOSAT 7-6            
1 44353U 19036Q   24117.69432054  .00015878  00000+0  93901-3 0  9999
2 44353  23.9990 259.3010 0001733  56.8827 303.1843 15.09621047264035
